start=new Date('2022-10-25T00:00:00.000Z').valueOf();
sats=[{"SITE":"AFWTR","TLE_LINE2":"2 50159  53.2176  30.6469 0001967  38.5453 321.5679 15.08814115 50434","EPOCH":"2022-10-24T11:55:09.037632","PERIOD":"95.439","FILE":"3631857","ELEMENT_SET_NO":"999","RA_OF_ASC_NODE":"30.6469","ARG_OF_PERICENTER":"38.5453","MEAN_MOTION_DDOT":"0.0000000000000","OBJECT_TYPE":"PAYLOAD","COUNTRY_CODE":"US","RCS_SIZE":"LARGE","NORAD_CAT_ID":"50159","OBJECT_NAME":"STARLINK-3297","MEAN_MOTION_DOT":"-0.00001241","BSTAR":"-0.00005989100000","CENTER_NAME":"EARTH","PERIAPSIS":"538.464","GP_ID":"216072167","MEAN_ELEMENT_THEORY":"SGP4","CLASSIFICATION_TYPE":"U","SEMIMAJOR_AXIS":"6917.960","REF_FRAME":"TEME","TIME_SYSTEM":"UTC","MEAN_ANOMALY":"321.5679","INCLINATION":"53.2176","TLE_LINE1":"1 50159U 21125D   22297.49663238 -.00001241  00000-0 -59891-4 0  9990","ECCENTRICITY":"0.00019670","LAUNCH_DATE":"2021-12-18","DECAY_DATE":null,"MEAN_MOTION":"15.08814115","EPHEMERIS_TYPE":"0","APOAPSIS":"541.185","REV_AT_EPOCH":"5043","OBJECT_ID":"2021-125D"},{"INCLINATION":"53.2178","ECCENTRICITY":"0.00026760","TLE_LINE1":"1 50160U 21125E   22297.70273003 -.00004773  00000-0 -28214-3 0  9990","DECAY_DATE":null,"LAUNCH_DATE":"2021-12-18","EPHEMERIS_TYPE":"0","MEAN_MOTION":"15.08814092","REV_AT_EPOCH":"5047","OBJECT_ID":"2021-125E","APOAPSIS":"541.676","CENTER_NAME":"EARTH","BSTAR":"-0.00028214000000","PERIAPSIS":"537.973","GP_ID":"216072417","CLASSIFICATION_TYPE":"U","MEAN_ELEMENT_THEORY":"SGP4","TIME_SYSTEM":"UTC","MEAN_ANOMALY":"328.2385","REF_FRAME":"TEME","SEMIMAJOR_AXIS":"6917.960","ARG_OF_PERICENTER":"31.8769","MEAN_MOTION_DDOT":"0.0000000000000","OBJECT_TYPE":"PAYLOAD","COUNTRY_CODE":"US","NORAD_CAT_ID":"50160","OBJECT_NAME":"STARLINK-3288","RCS_SIZE":"LARGE","MEAN_MOTION_DOT":"-0.00004773","SITE":"AFWTR","TLE_LINE2":"2 50160  53.2178  29.7321 0002676  31.8769 328.2385 15.08814092 50474","EPOCH":"2022-10-24T16:51:55.874592","FILE":"3631857","PERIOD":"95.439","RA_OF_ASC_NODE":"29.7321","ELEMENT_SET_NO":"999"},{"SITE":"AFWTR","TLE_LINE2":"2 50161  53.2193  30.0072 0002927  33.7069 326.4109 15.08825501 50452","RA_OF_ASC_NODE":"30.0072","ELEMENT_SET_NO":"999","EPOCH":"2022-10-24T15:21:50.005440","FILE":"3631857","PERIOD":"95.438","OBJECT_TYPE":"PAYLOAD","ARG_OF_PERICENTER":"33.7069","MEAN_MOTION_DDOT":"0.0000000000000","NORAD_CAT_ID":"50161","OBJECT_NAME":"STARLINK-3304","RCS_SIZE":"LARGE","MEAN_MOTION_DOT":"-0.00006891","COUNTRY_CODE":"US","PERIAPSIS":"537.765","CENTER_NAME":"EARTH","BSTAR":"-0.00041540000000","CLASSIFICATION_TYPE":"U","MEAN_ELEMENT_THEORY":"SGP4","TIME_SYSTEM":"UTC","MEAN_ANOMALY":"326.4109","SEMIMAJOR_AXIS":"6917.925","REF_FRAME":"TEME","GP_ID":"216072669","LAUNCH_DATE":"2021-12-18","DECAY_DATE":null,"INCLINATION":"53.2193","ECCENTRICITY":"0.00029270","TLE_LINE1":"1 50161U 21125F   22297.64016210 -.00006891  00000-0 -41540-3 0  9999","OBJECT_ID":"2021-125F","REV_AT_EPOCH":"5045","APOAPSIS":"541.815","EPHEMERIS_TYPE":"0","MEAN_MOTION":"15.08825501"},{"OBJECT_ID":"2021-125G","REV_AT_EPOCH":"5183","APOAPSIS":"416.712","EPHEMERIS_TYPE":"0","MEAN_MOTION":"15.50331612","LAUNCH_DATE":"2021-12-18","DECAY_DATE":null,"INCLINATION":"53.1990","ECCENTRICITY":"0.00014030","TLE_LINE1":"1 50162U 21125G   22297.86098393 -.00081821  00000-0 -14259-2 0  9998","CLASSIFICATION_TYPE":"U","MEAN_ELEMENT_THEORY":"SGP4","MEAN_ANOMALY":"288.0608","TIME_SYSTEM":"UTC","REF_FRAME":"TEME","SEMIMAJOR_AXIS":"6793.894","GP_ID":"216048824","PERIAPSIS":"414.806","CENTER_NAME":"EARTH","BSTAR":"-0.00142590000000","NORAD_CAT_ID":"50162","OBJECT_NAME":"STARLINK-3303","RCS_SIZE":"LARGE","MEAN_MOTION_DOT":"-0.00081821","COUNTRY_CODE":"US","OBJECT_TYPE":"PAYLOAD","ARG_OF_PERICENTER":"72.0555","MEAN_MOTION_DDOT":"0.0000000000000","RA_OF_ASC_NODE":"258.2146","ELEMENT_SET_NO":"999","EPOCH":"2022-10-24T20:39:49.011552","FILE":"3631835","PERIOD":"92.883","SITE":"AFWTR","TLE_LINE2":"2 50162  53.1990 258.2146 0001403  72.0555 288.0608 15.50331612 51839"},{"TLE_LINE2":"2 50163  53.2189  10.6657 0002190  37.8441 322.2705 15.08829344 50717","SITE":"AFWTR","RA_OF_ASC_NODE":"10.6657","ELEMENT_SET_NO":"999","FILE":"3631438","PERIOD":"95.438","EPOCH":"2022-10-24T11:48:34.214688","OBJECT_TYPE":"PAYLOAD","MEAN_MOTION_DDOT":"0.0000000000000","ARG_OF_PERICENTER":"37.8441","MEAN_MOTION_DOT":"-0.00002421","NORAD_CAT_ID":"50163","OBJECT_NAME":"STARLINK-3306","RCS_SIZE":"LARGE","COUNTRY_CODE":"US","PERIAPSIS":"538.263","CENTER_NAME":"EARTH","BSTAR":"-0.00013406000000","MEAN_ANOMALY":"322.2705","TIME_SYSTEM":"UTC","REF_FRAME":"TEME","SEMIMAJOR_AXIS":"6917.913","CLASSIFICATION_TYPE":"U","MEAN_ELEMENT_THEORY":"SGP4","GP_ID":"216040628","LAUNCH_DATE":"2021-12-18","DECAY_DATE":null,"ECCENTRICITY":"0.00021900","TLE_LINE1":"1 50163U 21125H   22297.49206267 -.00002421  00000-0 -13406-3 0  9992","INCLINATION":"53.2189","REV_AT_EPOCH":"5071","OBJECT_ID":"2021-125H","APOAPSIS":"541.293","EPHEMERIS_TYPE":"0","MEAN_MOTION":"15.08829344"},{"EPHEMERIS_TYPE":"0","MEAN_MOTION":"15.08800450","REV_AT_EPOCH":"4741","OBJECT_ID":"2021-125K","APOAPSIS":"541.309","ECCENTRICITY":"0.00020860","TLE_LINE1":"1 50165U 21125K   22297.89041082 -.00004556  00000-0 -26859-3 0  9997","INCLINATION":"53.2188","LAUNCH_DATE":"2021-12-18","DECAY_DATE":null,"GP_ID":"216048205","TIME_SYSTEM":"UTC","MEAN_ANOMALY":"320.1745","SEMIMAJOR_AXIS":"6918.001","REF_FRAME":"TEME","CLASSIFICATION_TYPE":"U","MEAN_ELEMENT_THEORY":"SGP4","CENTER_NAME":"EARTH","BSTAR":"-0.00026859000000","PERIAPSIS":"538.423","COUNTRY_CODE":"US","MEAN_MOTION_DOT":"-0.00004556","NORAD_CAT_ID":"50165","OBJECT_NAME":"STARLINK-3298","RCS_SIZE":"LARGE","MEAN_MOTION_DDOT":"0.0000000000000","ARG_OF_PERICENTER":"39.9401","OBJECT_TYPE":"PAYLOAD","FILE":"3631819","PERIOD":"95.440","EPOCH":"2022-10-24T21:22:11.494848","RA_OF_ASC_NODE":"28.8944","ELEMENT_SET_NO":"999","TLE_LINE2":"2 50165  53.2188  28.8944 0002086  39.9401 320.1745 15.08800450 47412","SITE":"AFWTR"},{"DECAY_DATE":null,"LAUNCH_DATE":"2021-12-18","INCLINATION":"53.2211","TLE_LINE1":"1 50166U 21125L   22297.64843321 -.00000274  00000-0  88465-6 0  9993","ECCENTRICITY":"0.00024090","APOAPSIS":"541.471","REV_AT_EPOCH":"5059","OBJECT_ID":"2021-125L","MEAN_MOTION":"15.08820736","EPHEMERIS_TYPE":"0","PERIAPSIS":"538.138","BSTAR":"0.00000088465000","CENTER_NAME":"EARTH","MEAN_ELEMENT_THEORY":"SGP4","CLASSIFICATION_TYPE":"U","SEMIMAJOR_AXIS":"6917.939","REF_FRAME":"TEME","TIME_SYSTEM":"UTC","MEAN_ANOMALY":"324.4125","GP_ID":"216073169","OBJECT_TYPE":"PAYLOAD","ARG_OF_PERICENTER":"35.7028","MEAN_MOTION_DDOT":"0.0000000000000","RCS_SIZE":"LARGE","OBJECT_NAME":"STARLINK-3305","NORAD_CAT_ID":"50166","MEAN_MOTION_DOT":"-0.00000274","COUNTRY_CODE":"US","SITE":"AFWTR","TLE_LINE2":"2 50166  53.2211  19.9709 0002409  35.7028 324.4125 15.08820736 50599","ELEMENT_SET_NO":"999","RA_OF_ASC_NODE":"19.9709","EPOCH":"2022-10-24T15:33:44.629344","PERIOD":"95.439","FILE":"3631857"},{"MEAN_ELEMENT_THEORY":"SGP4","CLASSIFICATION_TYPE":"U","REF_FRAME":"TEME","SEMIMAJOR_AXIS":"6917.976","MEAN_ANOMALY":"311.1377","TIME_SYSTEM":"UTC","GP_ID":"216072920","PERIAPSIS":"538.516","BSTAR":"-0.00024120000000","CENTER_NAME":"EARTH","APOAPSIS":"541.167","OBJECT_ID":"2021-125M","REV_AT_EPOCH":"5047","MEAN_MOTION":"15.08808676","EPHEMERIS_TYPE":"0","LAUNCH_DATE":"2021-12-18","DECAY_DATE":null,"INCLINATION":"53.2182","TLE_LINE1":"1 50167U 21125M   22297.75056438 -.00004122  00000-0 -24120-3 0  9993","ECCENTRICITY":"0.00019160","ELEMENT_SET_NO":"999","RA_OF_ASC_NODE":"29.5254","EPOCH":"2022-10-24T18:00:48.762432","PERIOD":"95.440","FILE":"3631857","SITE":"AFWTR","TLE_LINE2":"2 50167  53.2182  29.5254 0001916  48.9780 311.1377 15.08808676 50470","RCS_SIZE":"LARGE","NORAD_CAT_ID":"50167","OBJECT_NAME":"STARLINK-3271","MEAN_MOTION_DOT":"-0.00004122","COUNTRY_CODE":"US","OBJECT_TYPE":"PAYLOAD","ARG_OF_PERICENTER":"48.9780","MEAN_MOTION_DDOT":"0.0000000000000"},{"SITE":"AFWTR","TLE_LINE2":"2 50168  53.2183  19.9844 0002205  33.8668 326.2465 15.08813671 50601","EPOCH":"2022-10-24T15:28:26.770656","PERIOD":"95.439","FILE":"3631857","ELEMENT_SET_NO":"999","RA_OF_ASC_NODE":"19.9844","ARG_OF_PERICENTER":"33.8668","MEAN_MOTION_DDOT":"0.0000000000000","OBJECT_TYPE":"PAYLOAD","COUNTRY_CODE":"US","RCS_SIZE":"LARGE","NORAD_CAT_ID":"50168","OBJECT_NAME":"STARLINK-3296","MEAN_MOTION_DOT":"-0.00004348","BSTAR":"-0.00025544000000","CENTER_NAME":"EARTH","PERIAPSIS":"538.300","GP_ID":"216072168","MEAN_ELEMENT_THEORY":"SGP4","CLASSIFICATION_TYPE":"U","REF_FRAME":"TEME","SEMIMAJOR_AXIS":"6917.961","MEAN_ANOMALY":"326.2465","TIME_SYSTEM":"UTC","INCLINATION":"53.2183","TLE_LINE1":"1 50168U 21125N   22297.64475429 -.00004348  00000-0 -25544-3 0  9998","ECCENTRICITY":"0.00022050","DECAY_DATE":null,"LAUNCH_DATE":"2021-12-18","MEAN_MOTION":"15.08813671","EPHEMERIS_TYPE":"0","APOAPSIS":"541.351","REV_AT_EPOCH":"5060","OBJECT_ID":"2021-125N"},{"MEAN_ANOMALY":"330.2314","TIME_SYSTEM":"UTC","SEMIMAJOR_AXIS":"6917.988","REF_FRAME":"TEME","CLASSIFICATION_TYPE":"U","MEAN_ELEMENT_THEORY":"SGP4","GP_ID":"216072418","PERIAPSIS":"537.732","CENTER_NAME":"EARTH","BSTAR":"-0.00012313000000","REV_AT_EPOCH":"5060","OBJECT_ID":"2021-125P","APOAPSIS":"541.974","EPHEMERIS_TYPE":"0","MEAN_MOTION":"15.08804809","LAUNCH_DATE":"2021-12-18","DECAY_DATE":null,"ECCENTRICITY":"0.00030660","TLE_LINE1":"1 50169U 21125P   22297.61532688 -.00002246  00000-0 -12313-3 0  9992","INCLINATION":"53.2179","RA_OF_ASC_NODE":"20.1241","ELEMENT_SET_NO":"999","FILE":"3631857","PERIOD":"95.440","EPOCH":"2022-10-24T14:46:04.242432","TLE_LINE2":"2 50169  53.2179  20.1241 0003066  29.8853 330.2314 15.08804809 50600","SITE":"AFWTR","MEAN_MOTION_DOT":"-0.00002246","NORAD_CAT_ID":"50169","OBJECT_NAME":"STARLINK-3301","RCS_SIZE":"LARGE","COUNTRY_CODE":"US","OBJECT_TYPE":"PAYLOAD","MEAN_MOTION_DDOT":"0.0000000000000","ARG_OF_PERICENTER":"29.8853"}];
